BEIDOU-2 G3             
1 36590U 10024A   26181.16017098 -.00000128  00000+0  00000+0 0  9990
2 36590   4.5456  61.4641 0008007 356.9824 357.1217  1.00271112 58894
BADR-5                  
1 36592U 10025A   26180.84344988  .00000165  00000+0  00000+0 0  9998
2 36592   0.0514 125.9010 0004146  61.7179  64.4295  1.00268892 53342
COMS 1                  
1 36744U 10032A   26181.30554416 -.00000033  00000+0  00000+0 0  9991
2 36744   4.8371  75.2033 0011882  13.4117 320.9318  0.99168295 51210
ARABSAT-5A              
1 36745U 10032B   26181.30736417  .00000164  00000+0  00000+0 0  9999
2 36745   0.0781  56.3288 0005700  58.7464 304.4437  1.00273537 58771
ECHOSTAR 15             
1 36792U 10034A   26181.60496884  .00000010  00000+0  00000+0 0  9997
2 36792   0.0405 282.4921 0002147 166.2354 288.9318  1.00273706 58454
BEIDOU-2 IGSO-1         
1 36828U 10036A   26181.37475325 -.00000082  00000+0  00000+0 0  9990
2 36828  54.3057 162.8407 0058827 225.1163 132.8817  1.00268449 58222
NILESAT 201             
1 36830U 10037A   26180.65835366 -.00000047  00000+0  00000+0 0  9990
2 36830   0.0376 117.2796 0005321   5.7081  24.7564  1.00271661 58503
RASCOM-QAF 1R           
1 36831U 10037B   26181.01679475  .00000030  00000+0  00000+0 0  9990
2 36831   0.0317  81.2571 0006536  10.5717 195.2043  1.00272728 58432
AEHF-1 (USA 214)        
1 36868U 10039A   26181.30727750  .00000152  00000+0  00000+0 0  9999
2 36868   8.2515  67.8730 0004220  27.5897 323.5151  1.00268283 53784
XM-5                    
1 37185U 10053A   26181.10392142 -.00000012  00000+0  00000+0 0  9995
2 37185   0.0699 268.8148 0002500 286.8802   4.7004  1.00272097 57610
BSAT-3B                 
1 37207U 10056B   26181.53864119 -.00000339  00000+0  00000+0 0  9990
2 37207   0.0663 237.1704 0002236 289.4127  55.7735  1.00270464 52234
BEIDOU-2 G4             
1 37210U 10057A   26181.62132634 -.00000105  00000+0  00000+0 0  9996
2 37210   3.6792  68.8716 0004814 189.9166  43.5554  1.00271593 57427
SKYTERRA 1              
1 37218U 10061A   26181.59810145 -.00000111  00000+0  00000+0 0  9992
2 37218   5.1524  50.8321 0002375  33.3282 308.5189  1.00269841 57329
HYLAS 1                 
1 37237U 10065A   26181.30407082  .00000096  00000+0  00000+0 0  9999
2 37237   5.6751  72.8623 0001043 340.0885 348.6881  1.00272596  7010
INTELSAT 17 (IS-17)     
1 37238U 10065B   26181.52827057  .00000010  00000+0  00000+0 0  9998
2 37238   0.0101 223.3782 0002522 238.8228  72.5568  1.00270425 53381
BEIDOU-2 IGSO-2         
1 37256U 10068A   26180.89240375 -.00000189  00000+0  00000+0 0  9990
2 37256  47.5237 271.6743 0056620 213.9341 221.8288  1.00279812 56928
EUTELSAT KA-SAT 9A      
1 37258U 10069A   26180.66156034  .00000069  00000+0  00000+0 0  9992
2 37258   0.0604  11.5797 0004440 130.3911  22.9217  1.00251079 44137
HISPASAT 30W-5          
1 37264U 10070A   26181.36672094 -.00000205  00000+0  00000+0 0  9991
2 37264   0.0373 109.3832 0005849   2.6591 268.4164  1.00272251 53315
KOREASAT 6              
1 37265U 10070B   26181.56382480 -.00000101  00000+0  00000+0 0  9996
2 37265   0.0179  35.1104 0002703  74.3333 172.0450  1.00272364 56905
BEIDOU-2 IGSO-3         
1 37384U 11013A   26180.53855913 -.00000164  00000+0  00000+0 0  9997
2 37384  62.4244  40.0349 0035201 183.8161 354.9022  1.00265262 55782
INTELSAT 28 (IS-28)     
1 37392U 11016A   26181.50891404 -.00000216  00000+0  00000+0 0  9990
2 37392   1.8391  82.4700 0004029  16.4500 331.1236  1.00270581 53416
YAHSAT 1A               
1 37393U 11016B   26181.16912192  .00000000  00000+0  00000+0 0  9991
2 37393   0.0228  36.2688 0003498  71.1969 284.1558  1.00269168 42539
SBIRS GEO-1 (USA 230)   
1 37481U 11019A   26181.16903525  .00000107  00000+0  00000+0 0  9990
2 37481   4.5641  53.1166 0001870  39.2066 298.5656  1.00272062 55527
TELSTAR 14R             
1 37602U 11021A   26181.50276068 -.00000269  00000+0  00000+0 0  9991
2 37602   0.0506  81.4829 0002384 351.0986 323.9933  1.00270291 55961
GSAT-8                  
1 37605U 11022A   26181.45483030  .00000093  00000+0  00000+0 0  9992
2 37605   2.1638  81.6735 0001681 178.4527 237.2308  1.00274337 53351
ST-2                    
1 37606U 11022B   26181.46133032  .00000000  00000+0  00000+0 0  9996
2 37606   0.0267  42.9428 0001784  67.8450  61.8486  1.00270229 55419
ZHONGXING-10            
1 37677U 11026A   26181.46089699 -.00000179  00000+0  00000+0 0  9995
2 37677   1.0806  84.0685 0003817   9.7303  76.1846  1.00272431 55135
SES-3                   
1 37748U 11035A   26181.59888538 -.00000092  00000+0  00000+0 0  9991
2 37748   1.3599  82.9571 0002466   6.4848 301.8230  1.00272474 54720
KAZSAT-2                
1 37749U 11035B   26181.38978148 -.00000187  00000+0  00000+0 0  9991
2 37749   0.0138  73.4446 0001716  77.8892 353.9364  1.00274357 53536
BEIDOU-2 IGSO-4         
1 37763U 11038A   26180.95025249  .00000016  00000+0  00000+0 0  9997
2 37763  54.6037 165.5592 0159639 231.4058 317.0383  1.00283128 54775
ASTRA 1N                
1 37775U 11041A   26181.51888075  .00000130  00000+0  00000+0 0  9998
2 37775   0.0865  42.0130 0005940  55.9837  26.5593  1.00272039 44669
BSAT-3C (JCSAT-110R)    
1 37776U 11041B   26181.36919859 -.00000340  00000+0  00000+0 0  9991
2 37776   0.0165 345.5104 0000589 167.2157   8.5729  1.00270203 50604
