OBJECT_NAME,OBJECT_ID,EPOCH,MEAN_MOTION,ECCENTRICITY,INCLINATION,RA_OF_ASC_NODE,ARG_OF_PERICENTER,MEAN_ANOMALY,EPHEMERIS_TYPE,CLASSIFICATION_TYPE,NORAD_CAT_ID,ELEMENT_SET_NO,REV_AT_EPOCH,BSTAR,MEAN_MOTION_DOT,MEAN_MOTION_DDOT
BEIDOU-2 G3,2010-024A,2026-06-30T03:50:38.772672,1.00271112,.00080077,4.5456,61.4641,356.9824,357.1217,0,U,36590,999,5889,0,-.128E-5,0
BADR-5,2010-025A,2026-06-29T20:14:34.069632,1.00268892,.00041464,0.0514,125.9010,61.7179,64.4295,0,U,36592,999,5334,0,.165E-5,0
COMS 1,2010-032A,2026-06-30T07:19:59.015424,0.99168295,.00118822,4.8371,75.2033,13.4117,320.9318,0,U,36744,999,5121,0,-.33E-6,0
ARABSAT-5A,2010-032B,2026-06-30T07:22:36.264288,1.00273537,.00057007,0.0781,56.3288,58.7464,304.4437,0,U,36745,999,5877,0,.164E-5,0
ECHOSTAR 15,2010-034A,2026-06-30T14:31:09.307776,1.00273706,.00021476,0.0405,282.4921,166.2354,288.9318,0,U,36792,999,5845,0,.1E-6,0
BEIDOU-2 IGSO-1,2010-036A,2026-06-30T08:59:38.680800,1.00268449,.00588274,54.3057,162.8407,225.1163,132.8817,0,U,36828,999,5822,0,-.82E-6,0
NILESAT 201,2010-037A,2026-06-29T15:48:01.756224,1.00271661,.0005321,0.0376,117.2796,5.7081,24.7564,0,U,36830,999,5850,0,-.47E-6,0
RASCOM-QAF 1R,2010-037B,2026-06-30T00:24:11.066400,1.00272728,.00065363,0.0317,81.2571,10.5717,195.2043,0,U,36831,999,5843,0,.3E-6,0
AEHF-1 (USA 214),2010-039A,2026-06-30T07:22:28.776000,1.00268283,.00042207,8.2515,67.8730,27.5897,323.5151,0,U,36868,999,5378,0,.152E-5,0
XM-5,2010-053A,2026-06-30T02:29:38.810688,1.00272097,.00025001,0.0699,268.8148,286.8802,4.7004,0,U,37185,999,5761,0,-.12E-6,0
BSAT-3B,2010-056B,2026-06-30T12:55:38.598816,1.00270464,.00022367,0.0663,237.1704,289.4127,55.7735,0,U,37207,999,5223,0,-.339E-5,0
BEIDOU-2 G4,2010-057A,2026-06-30T14:54:42.595776,1.00271593,.00048147,3.6792,68.8716,189.9166,43.5554,0,U,37210,999,5742,0,-.105E-5,0
SKYTERRA 1,2010-061A,2026-06-30T14:21:15.965280,1.00269841,.00023755,5.1524,50.8321,33.3282,308.5189,0,U,37218,999,5732,0,-.111E-5,0
HYLAS 1,2010-065A,2026-06-30T07:17:51.718848,1.00272596,.00010436,5.6751,72.8623,340.0885,348.6881,0,U,37237,999,701,0,.96E-6,0
INTELSAT 17 (IS-17),2010-065B,2026-06-30T12:40:42.577248,1.00270425,.00025224,0.0101,223.3782,238.8228,72.5568,0,U,37238,999,5338,0,.1E-6,0
BEIDOU-2 IGSO-2,2010-068A,2026-06-29T21:25:03.684000,1.00279812,.00566205,47.5237,271.6743,213.9341,221.8288,0,U,37256,999,5692,0,-.189E-5,0
EUTELSAT KA-SAT 9A,2010-069A,2026-06-29T15:52:38.813376,1.00251079,.00044404,0.0604,11.5797,130.3911,22.9217,0,U,37258,999,4413,0,.69E-6,0
HISPASAT 30W-5,2010-070A,2026-06-30T08:48:04.689216,1.00272251,.00058497,0.0373,109.3832,2.6591,268.4164,0,U,37264,999,5331,0,-.205E-5,0
KOREASAT 6,2010-070B,2026-06-30T13:31:54.462720,1.00272364,.00027038,0.0179,35.1104,74.3333,172.0450,0,U,37265,999,5690,0,-.101E-5,0
BEIDOU-2 IGSO-3,2011-013A,2026-06-29T12:55:31.508832,1.00265262,.00352011,62.4244,40.0349,183.8161,354.9022,0,U,37384,999,5578,0,-.164E-5,0
INTELSAT 28 (IS-28),2011-016A,2026-06-30T12:12:50.173056,1.00270581,.00040297,1.8391,82.4700,16.4500,331.1236,0,U,37392,999,5341,0,-.216E-5,0
YAHSAT 1A,2011-016B,2026-06-30T04:03:32.133888,1.00269168,.00034983,0.0228,36.2688,71.1969,284.1558,0,U,37393,999,4253,0,0,0
SBIRS GEO-1 (USA 230),2011-019A,2026-06-30T04:03:24.645600,1.00272062,.00018702,4.5641,53.1166,39.2066,298.5656,0,U,37481,999,5552,0,.107E-5,0
TELSTAR 14R,2011-021A,2026-06-30T12:03:58.522752,1.00270291,.00023843,0.0506,81.4829,351.0986,323.9933,0,U,37602,999,5596,0,-.269E-5,0
GSAT-8,2011-022A,2026-06-30T10:54:57.337920,1.00274337,.00016818,2.1638,81.6735,178.4527,237.2308,0,U,37605,999,5335,0,.93E-6,0
ST-2,2011-022B,2026-06-30T11:04:18.939648,1.00270229,.00017845,0.0267,42.9428,67.8450,61.8486,0,U,37606,999,5541,0,0,0
ZHONGXING-10,2011-026A,2026-06-30T11:03:41.499936,1.00272431,.0003817,1.0806,84.0685,9.7303,76.1846,0,U,37677,999,5513,0,-.179E-5,0
SES-3,2011-035A,2026-06-30T14:22:23.696832,1.00272474,.00024664,1.3599,82.9571,6.4848,301.8230,0,U,37748,999,5472,0,-.92E-6,0
KAZSAT-2,2011-035B,2026-06-30T09:21:17.119872,1.00274357,.00017167,0.0138,73.4446,77.8892,353.9364,0,U,37749,999,5353,0,-.187E-5,0
BEIDOU-2 IGSO-4,2011-038A,2026-06-29T22:48:21.815136,1.00283128,.01596391,54.6037,165.5592,231.4058,317.0383,0,U,37763,999,5477,0,.16E-6,0
ASTRA 1N,2011-041A,2026-06-30T12:27:11.296800,1.00272039,.00059408,0.0865,42.0130,55.9837,26.5593,0,U,37775,999,4466,0,.13E-5,0
BSAT-3C (JCSAT-110R),2011-041B,2026-06-30T08:51:38.758176,1.00270203,.00005891,0.0165,345.5104,167.2157,8.5729,0,U,37776,999,5060,0,-.34E-5,0
